CCSDS_OMM_VERS = 2.0
CREATION_DATE  = 
ORIGINATOR     = 

OBJECT_NAME    = SL-16 R/B
OBJECT_ID      = 1998-045B
CENTER_NAME    = EARTH
REF_FRAME      = TEME
TIME_SYSTEM    = UTC
MEAN_ELEMENT_THEORY = SGP/SGP4

EPOCH          = 2026-04-01T04:13:00.957792
MEAN_MOTION    = 14.16193157
ECCENTRICITY   = .0008115
INCLINATION    = 71.0094
RA_OF_ASC_NODE = 134.2890
ARG_OF_PERICENTER = 334.4190
MEAN_ANOMALY   = 25.6530

EPHEMERIS_TYPE = 0
CLASSIFICATION_TYPE = U
NORAD_CAT_ID   = 25407
ELEMENT_SET_NO = 999
REV_AT_EPOCH   = 43028
BSTAR          = -.4006E-4
MEAN_MOTION_DOT = -.127E-5
MEAN_MOTION_DDOT = 0

CCSDS_OMM_VERS = 2.0
CREATION_DATE  = 
ORIGINATOR     = 

OBJECT_NAME    = ISS (ZARYA)
OBJECT_ID      = 1998-067A
CENTER_NAME    = EARTH
REF_FRAME      = TEME
TIME_SYSTEM    = UTC
MEAN_ELEMENT_THEORY = SGP/SGP4

EPOCH          = 2026-04-01T02:25:28.666272
MEAN_MOTION    = 15.48690056
ECCENTRICITY   = .0006224
INCLINATION    = 51.6334
RA_OF_ASC_NODE = 321.5639
ARG_OF_PERICENTER = 257.9417
MEAN_ANOMALY   = 102.0874

EPHEMERIS_TYPE = 0
CLASSIFICATION_TYPE = U
NORAD_CAT_ID   = 25544
ELEMENT_SET_NO = 999
REV_AT_EPOCH   = 55980
BSTAR          = .17059E-3
MEAN_MOTION_DOT = .8862E-4
MEAN_MOTION_DDOT = 0

CCSDS_OMM_VERS = 2.0
CREATION_DATE  = 
ORIGINATOR     = 

OBJECT_NAME    = CZ-4B R/B
OBJECT_ID      = 1999-025C
CENTER_NAME    = EARTH
REF_FRAME      = TEME
TIME_SYSTEM    = UTC
MEAN_ELEMENT_THEORY = SGP/SGP4

EPOCH          = 2026-04-01T02:21:41.734080
MEAN_MOTION    = 14.18269842
ECCENTRICITY   = .0035972
INCLINATION    = 98.6580
RA_OF_ASC_NODE = 134.8445
ARG_OF_PERICENTER = 280.7063
MEAN_ANOMALY   = 133.2500

EPHEMERIS_TYPE = 0
CLASSIFICATION_TYPE = U
NORAD_CAT_ID   = 25732
ELEMENT_SET_NO = 999
REV_AT_EPOCH   = 39134
BSTAR          = .63783E-4
MEAN_MOTION_DOT = .89E-6
MEAN_MOTION_DDOT = 0

CCSDS_OMM_VERS = 2.0
CREATION_DATE  = 
ORIGINATOR     = 

OBJECT_NAME    = OKEAN-O
OBJECT_ID      = 1999-039A
CENTER_NAME    = EARTH
REF_FRAME      = TEME
TIME_SYSTEM    = UTC
MEAN_ELEMENT_THEORY = SGP/SGP4

EPOCH          = 2026-04-01T03:50:49.778304
MEAN_MOTION    = 14.80371111
ECCENTRICITY   = .0000868
INCLINATION    = 97.9396
RA_OF_ASC_NODE = 150.8182
ARG_OF_PERICENTER = 99.3827
MEAN_ANOMALY   = 260.7483

EPHEMERIS_TYPE = 0
CLASSIFICATION_TYPE = U
NORAD_CAT_ID   = 25860
ELEMENT_SET_NO = 999
REV_AT_EPOCH   = 43771
BSTAR          = .10277E-3
MEAN_MOTION_DOT = .732E-5
MEAN_MOTION_DDOT = 0

CCSDS_OMM_VERS = 2.0
CREATION_DATE  = 
ORIGINATOR     = 

OBJECT_NAME    = SL-16 R/B
OBJECT_ID      = 1999-039B
CENTER_NAME    = EARTH
REF_FRAME      = TEME
TIME_SYSTEM    = UTC
MEAN_ELEMENT_THEORY = SGP/SGP4

EPOCH          = 2026-04-01T02:51:26.612928
MEAN_MOTION    = 14.81762859
ECCENTRICITY   = .001481
INCLINATION    = 97.9918
RA_OF_ASC_NODE = 150.1769
ARG_OF_PERICENTER = 179.4348
MEAN_ANOMALY   = 180.6884

EPHEMERIS_TYPE = 0
CLASSIFICATION_TYPE = U
NORAD_CAT_ID   = 25861
ELEMENT_SET_NO = 999
REV_AT_EPOCH   = 44018
BSTAR          = .10479E-3
MEAN_MOTION_DOT = .774E-5
MEAN_MOTION_DDOT = 0

CCSDS_OMM_VERS = 2.0
CREATION_DATE  = 
ORIGINATOR     = 

OBJECT_NAME    = DELTA 2 R/B
OBJECT_ID      = 1999-041E
CENTER_NAME    = EARTH
REF_FRAME      = TEME
TIME_SYSTEM    = UTC
MEAN_ELEMENT_THEORY = SGP/SGP4

EPOCH          = 2026-04-01T00:34:36.704352
MEAN_MOTION    = 14.11889596
ECCENTRICITY   = .0502633
INCLINATION    = 51.7608
RA_OF_ASC_NODE = 212.0602
ARG_OF_PERICENTER = 54.2922
MEAN_ANOMALY   = 310.3712

EPHEMERIS_TYPE = 0
CLASSIFICATION_TYPE = U
NORAD_CAT_ID   = 25876
ELEMENT_SET_NO = 999
REV_AT_EPOCH   = 36618
BSTAR          = .20851E-3
MEAN_MOTION_DOT = .1052E-4
MEAN_MOTION_DDOT = 0

CCSDS_OMM_VERS = 2.0
CREATION_DATE  = 
ORIGINATOR     = 

OBJECT_NAME    = HELIOS 1B
OBJECT_ID      = 1999-064A
CENTER_NAME    = EARTH
REF_FRAME      = TEME
TIME_SYSTEM    = UTC
MEAN_ELEMENT_THEORY = SGP/SGP4

EPOCH          = 2026-04-01T04:15:49.260672
MEAN_MOTION    = 14.87784963
ECCENTRICITY   = .000168
INCLINATION    = 98.1675
RA_OF_ASC_NODE = 354.0797
ARG_OF_PERICENTER = 46.8835
MEAN_ANOMALY   = 313.2521

EPHEMERIS_TYPE = 0
CLASSIFICATION_TYPE = U
NORAD_CAT_ID   = 25977
ELEMENT_SET_NO = 999
REV_AT_EPOCH   = 68860
BSTAR          = .17725E-3
MEAN_MOTION_DOT = .156E-4
MEAN_MOTION_DDOT = 0

CCSDS_OMM_VERS = 2.0
CREATION_DATE  = 
ORIGINATOR     = 

OBJECT_NAME    = TERRA
OBJECT_ID      = 1999-068A
CENTER_NAME    = EARTH
REF_FRAME      = TEME
TIME_SYSTEM    = UTC
MEAN_ELEMENT_THEORY = SGP/SGP4

EPOCH          = 2026-04-01T04:25:55.677216
MEAN_MOTION    = 14.61038417
ECCENTRICITY   = .0003623
INCLINATION    = 97.9545
RA_OF_ASC_NODE = 143.7548
ARG_OF_PERICENTER = 105.1982
MEAN_ANOMALY   = 347.6695

EPHEMERIS_TYPE = 0
CLASSIFICATION_TYPE = U
NORAD_CAT_ID   = 25994
ELEMENT_SET_NO = 999
REV_AT_EPOCH   = 39836
BSTAR          = .10848E-3
MEAN_MOTION_DOT = .488E-5
MEAN_MOTION_DDOT = 0

CCSDS_OMM_VERS = 2.0
CREATION_DATE  = 
ORIGINATOR     = 

OBJECT_NAME    = SL-16 R/B
OBJECT_ID      = 2000-006B
CENTER_NAME    = EARTH
REF_FRAME      = TEME
TIME_SYSTEM    = UTC
MEAN_ELEMENT_THEORY = SGP/SGP4

EPOCH          = 2026-04-01T04:43:40.508832
MEAN_MOTION    = 14.15829474
ECCENTRICITY   = .0015475
INCLINATION    = 71.0031
RA_OF_ASC_NODE = 50.5082
ARG_OF_PERICENTER = 154.5687
MEAN_ANOMALY   = 205.6201

EPHEMERIS_TYPE = 0
CLASSIFICATION_TYPE = U
NORAD_CAT_ID   = 26070
ELEMENT_SET_NO = 999
REV_AT_EPOCH   = 35174
BSTAR          = .14213E-3
MEAN_MOTION_DOT = .232E-5
MEAN_MOTION_DDOT = 0

CCSDS_OMM_VERS = 2.0
CREATION_DATE  = 
ORIGINATOR     = 

OBJECT_NAME    = TITAN 4B R/B
OBJECT_ID      = 2000-047B
CENTER_NAME    = EARTH
REF_FRAME      = TEME
TIME_SYSTEM    = UTC
MEAN_ELEMENT_THEORY = SGP/SGP4

EPOCH          = 2026-04-01T03:45:14.316480
MEAN_MOTION    = 15.09769675
ECCENTRICITY   = .0040027
INCLINATION    = 67.9910
RA_OF_ASC_NODE = 337.3277
ARG_OF_PERICENTER = 9.0196
MEAN_ANOMALY   = 351.1662

EPHEMERIS_TYPE = 0
CLASSIFICATION_TYPE = U
NORAD_CAT_ID   = 26474
ELEMENT_SET_NO = 999
REV_AT_EPOCH   = 39630
BSTAR          = .24184E-3
MEAN_MOTION_DOT = .3851E-4
MEAN_MOTION_DDOT = 0

CCSDS_OMM_VERS = 2.0
CREATION_DATE  = 
ORIGINATOR     = 

OBJECT_NAME    = ENVISAT
OBJECT_ID      = 2002-009A
CENTER_NAME    = EARTH
REF_FRAME      = TEME
TIME_SYSTEM    = UTC
MEAN_ELEMENT_THEORY = SGP/SGP4

EPOCH          = 2026-04-01T03:09:39.237696
MEAN_MOTION    = 14.39044917
ECCENTRICITY   = .000122
INCLINATION    = 98.3766
RA_OF_ASC_NODE = 44.1999
ARG_OF_PERICENTER = 82.4031
MEAN_ANOMALY   = 295.4672

EPHEMERIS_TYPE = 0
CLASSIFICATION_TYPE = U
NORAD_CAT_ID   = 27386
ELEMENT_SET_NO = 999
REV_AT_EPOCH   = 26240
BSTAR          = .6627E-4
MEAN_MOTION_DOT = .162E-5
MEAN_MOTION_DDOT = 0

CCSDS_OMM_VERS = 2.0
CREATION_DATE  = 
ORIGINATOR     = 

OBJECT_NAME    = IDEFIX & ARIANE 42P R/B
OBJECT_ID      = 2002-021B
CENTER_NAME    = EARTH
REF_FRAME      = TEME
TIME_SYSTEM    = UTC
MEAN_ELEMENT_THEORY = SGP/SGP4

EPOCH          = 2026-03-31T14:10:15.409632
MEAN_MOTION    = 14.31041145
ECCENTRICITY   = .0012732
INCLINATION    = 98.5896
RA_OF_ASC_NODE = 28.9383
ARG_OF_PERICENTER = 119.9144
MEAN_ANOMALY   = 240.3305

EPHEMERIS_TYPE = 0
CLASSIFICATION_TYPE = U
NORAD_CAT_ID   = 27422
ELEMENT_SET_NO = 999
REV_AT_EPOCH   = 24715
BSTAR          = .15081E-3
MEAN_MOTION_DOT = .354E-5
MEAN_MOTION_DDOT = 0

